[
  {
    "OBJECT_NAME": "STARLINK-34394",
    "OBJECT_ID": "25139F",
    "EPOCH": "2025-11-11T06:42:20.498688",
    "MEAN_MOTION": 15.30202568,
    "ECCENTRICITY": 0.0001443,
    "INCLINATION": 53.1602,
    "RA_OF_ASC_NODE": 317.1404,
    "ARG_OF_PERICENTER": 79.566,
    "MEAN_ANOMALY": 280.5503,
    "EPHEMERIS_TYPE": 0,
    "CLASSIFICATION_TYPE": "U",
    "NORAD_CAT_ID": 64669,
    "ELEMENT_SET_NO": 999,
    "REV_AT_EPOCH": 2215,
    "BSTAR": 0.0014551,
    "MEAN_MOTION_DOT": 0.00042989,
    "MEAN_MOTION_DDOT": 0.0,
    "TLE_LINE1": "1 64669U 25139F   25315.27940392  .00042989  00000+0  14551-2 0  9992",
    "TLE_LINE2": "2 64669  53.1602 317.1404 0001443  79.5660 280.5503 15.30202568 22150",
    "COMMENT": "Grouped by shell and plane from TLE"
  },
  {
    "OBJECT_NAME": "STARLINK-34287",
    "OBJECT_ID": "25139G",
    "EPOCH": "2025-11-11T06:33:13.190976",
    "MEAN_MOTION": 15.30219456,
    "ECCENTRICITY": 0.0001522,
    "INCLINATION": 53.1602,
    "RA_OF_ASC_NODE": 317.1008,
    "ARG_OF_PERICENTER": 90.9122,
    "MEAN_ANOMALY": 269.2054,
    "EPHEMERIS_TYPE": 0,
    "CLASSIFICATION_TYPE": "U",
    "NORAD_CAT_ID": 64670,
    "ELEMENT_SET_NO": 999,
    "REV_AT_EPOCH": 2215,
    "BSTAR": 0.0016283,
    "MEAN_MOTION_DOT": 0.00048208,
    "MEAN_MOTION_DDOT": 0.0,
    "TLE_LINE1": "1 64670U 25139G   25315.27306934  .00048208  00000+0  16283-2 0  9996",
    "TLE_LINE2": "2 64670  53.1602 317.1008 0001522  90.9122 269.2054 15.30219456 22159",
    "COMMENT": "Grouped by shell and plane from TLE"
  },
  {
    "OBJECT_NAME": "STARLINK-34365",
    "OBJECT_ID": "25139H",
    "EPOCH": "2025-11-11T07:05:07.900512",
    "MEAN_MOTION": 15.30200769,
    "ECCENTRICITY": 0.0001301,
    "INCLINATION": 53.1583,
    "RA_OF_ASC_NODE": 317.2386,
    "ARG_OF_PERICENTER": 89.0251,
    "MEAN_ANOMALY": 271.0899,
    "EPHEMERIS_TYPE": 0,
    "CLASSIFICATION_TYPE": "U",
    "NORAD_CAT_ID": 64671,
    "ELEMENT_SET_NO": 999,
    "REV_AT_EPOCH": 2221,
    "BSTAR": 0.00096975,
    "MEAN_MOTION_DOT": 0.00028473,
    "MEAN_MOTION_DDOT": 0.0,
    "TLE_LINE1": "1 64671U 25139H   25315.29523033  .00028473  00000+0  96975-3 0  9999",
    "TLE_LINE2": "2 64671  53.1583 317.2386 0001301  89.0251 271.0899 15.30200769 22217",
    "COMMENT": "Grouped by shell and plane from TLE"
  },
  {
    "OBJECT_NAME": "STARLINK-34442",
    "OBJECT_ID": "25139J",
    "EPOCH": "2025-11-11T06:13:25.545216",
    "MEAN_MOTION": 15.30198888,
    "ECCENTRICITY": 0.0002439,
    "INCLINATION": 53.1596,
    "RA_OF_ASC_NODE": 317.0147,
    "ARG_OF_PERICENTER": 141.5336,
    "MEAN_ANOMALY": 218.5839,
    "EPHEMERIS_TYPE": 0,
    "CLASSIFICATION_TYPE": "U",
    "NORAD_CAT_ID": 64672,
    "ELEMENT_SET_NO": 999,
    "REV_AT_EPOCH": 2215,
    "BSTAR": 0.0,
    "MEAN_MOTION_DOT": -0.00014916,
    "MEAN_MOTION_DDOT": 0.0,
    "TLE_LINE1": "1 64672U 25139J   25315.25932344 -.00014916  00000+0 -49242-3 0  9999",
    "TLE_LINE2": "2 64672  53.1596 317.0147 0002439 141.5336 218.5839 15.30198888 22157",
    "COMMENT": "Grouped by shell and plane from TLE"
  },
  {
    "OBJECT_NAME": "STARLINK-34288",
    "OBJECT_ID": "25139K",
    "EPOCH": "2025-11-11T06:22:34.881600",
    "MEAN_MOTION": 15.30218527,
    "ECCENTRICITY": 0.0001042,
    "INCLINATION": 53.161,
    "RA_OF_ASC_NODE": 317.0526,
    "ARG_OF_PERICENTER": 113.9765,
    "MEAN_ANOMALY": 246.1345,
    "EPHEMERIS_TYPE": 0,
    "CLASSIFICATION_TYPE": "U",
    "NORAD_CAT_ID": 64673,
    "ELEMENT_SET_NO": 999,
    "REV_AT_EPOCH": 2215,
    "BSTAR": 0.0013935,
    "MEAN_MOTION_DOT": 0.00041165,
    "MEAN_MOTION_DDOT": 0.0,
    "TLE_LINE1": "1 64673U 25139K   25315.26568150  .00041165  00000+0  13935-2 0  9994",
    "TLE_LINE2": "2 64673  53.1610 317.0526 0001042 113.9765 246.1345 15.30218527 22156",
    "COMMENT": "Grouped by shell and plane from TLE"
  },
  {
    "OBJECT_NAME": "STARLINK-34539",
    "OBJECT_ID": "25139L",
    "EPOCH": "2025-11-11T06:08:54.360672",
    "MEAN_MOTION": 15.30214598,
    "ECCENTRICITY": 0.0001524,
    "INCLINATION": 53.1589,
    "RA_OF_ASC_NODE": 316.994,
    "ARG_OF_PERICENTER": 116.2454,
    "MEAN_ANOMALY": 243.8704,
    "EPHEMERIS_TYPE": 0,
    "CLASSIFICATION_TYPE": "U",
    "NORAD_CAT_ID": 64674,
    "ELEMENT_SET_NO": 999,
    "REV_AT_EPOCH": 2205,
    "BSTAR": 0.00020532000000000002,
    "MEAN_MOTION_DOT": 5.729e-05,
    "MEAN_MOTION_DDOT": 0.0,
    "TLE_LINE1": "1 64674U 25139L   25315.25618473  .00005729  00000+0  20532-3 0  9996",
    "TLE_LINE2": "2 64674  53.1589 316.9940 0001524 116.2454 243.8704 15.30214598 22052",
    "COMMENT": "Grouped by shell and plane from TLE"
  },
  {
    "OBJECT_NAME": "STARLINK-34590",
    "OBJECT_ID": "25139M",
    "EPOCH": "2025-11-11T07:20:19.782528",
    "MEAN_MOTION": 15.30206499,
    "ECCENTRICITY": 0.0001411,
    "INCLINATION": 53.1581,
    "RA_OF_ASC_NODE": 317.3042,
    "ARG_OF_PERICENTER": 92.4632,
    "MEAN_ANOMALY": 267.653,
    "EPHEMERIS_TYPE": 0,
    "CLASSIFICATION_TYPE": "U",
    "NORAD_CAT_ID": 64675,
    "ELEMENT_SET_NO": 999,
    "REV_AT_EPOCH": 2215,
    "BSTAR": 0.0013672,
    "MEAN_MOTION_DOT": 0.00040361,
    "MEAN_MOTION_DDOT": 0.0,
    "TLE_LINE1": "1 64675U 25139M   25315.30578452  .00040361  00000+0  13672-2 0  9992",
    "TLE_LINE2": "2 64675  53.1581 317.3042 0001411  92.4632 267.6530 15.30206499 22154",
    "COMMENT": "Grouped by shell and plane from TLE"
  },
  {
    "OBJECT_NAME": "STARLINK-34573",
    "OBJECT_ID": "25139N",
    "EPOCH": "2025-11-11T07:29:16.826784",
    "MEAN_MOTION": 15.30215172,
    "ECCENTRICITY": 0.0001295,
    "INCLINATION": 53.159,
    "RA_OF_ASC_NODE": 316.6315,
    "ARG_OF_PERICENTER": 93.6445,
    "MEAN_ANOMALY": 266.4704,
    "EPHEMERIS_TYPE": 0,
    "CLASSIFICATION_TYPE": "U",
    "NORAD_CAT_ID": 64676,
    "ELEMENT_SET_NO": 999,
    "REV_AT_EPOCH": 2216,
    "BSTAR": 0.0007726100000000001,
    "MEAN_MOTION_DOT": 0.00022604,
    "MEAN_MOTION_DDOT": 0.0,
    "TLE_LINE1": "1 64676U 25139N   25315.31200031  .00022604  00000+0  77261-3 0  9994",
    "TLE_LINE2": "2 64676  53.1590 316.6315 0001295  93.6445 266.4704 15.30215172 22164",
    "COMMENT": "Grouped by shell and plane from TLE"
  },
  {
    "OBJECT_NAME": "STARLINK-34605",
    "OBJECT_ID": "25139P",
    "EPOCH": "2025-11-11T06:11:45.911328",
    "MEAN_MOTION": 15.39632502,
    "ECCENTRICITY": 0.0001112,
    "INCLINATION": 53.1614,
    "RA_OF_ASC_NODE": 312.0476,
    "ARG_OF_PERICENTER": 71.291,
    "MEAN_ANOMALY": 288.8216,
    "EPHEMERIS_TYPE": 0,
    "CLASSIFICATION_TYPE": "U",
    "NORAD_CAT_ID": 64677,
    "ELEMENT_SET_NO": 999,
    "REV_AT_EPOCH": 2222,
    "BSTAR": 0.0010613,
    "MEAN_MOTION_DOT": 0.00042303,
    "MEAN_MOTION_DDOT": 0.0,
    "TLE_LINE1": "1 64677U 25139P   25315.25817027  .00042303  00000+0  10613-2 0  9992",
    "TLE_LINE2": "2 64677  53.1614 312.0476 0001112  71.2910 288.8216 15.39632502 22229",
    "COMMENT": "Grouped by shell and plane from TLE"
  },
  {
    "OBJECT_NAME": "STARLINK-34525",
    "OBJECT_ID": "25139Q",
    "EPOCH": "2025-11-11T07:12:43.721856",
    "MEAN_MOTION": 15.30205093,
    "ECCENTRICITY": 0.0001383,
    "INCLINATION": 53.1583,
    "RA_OF_ASC_NODE": 317.2684,
    "ARG_OF_PERICENTER": 92.1944,
    "MEAN_ANOMALY": 267.9215,
    "EPHEMERIS_TYPE": 0,
    "CLASSIFICATION_TYPE": "U",
    "NORAD_CAT_ID": 64678,
    "ELEMENT_SET_NO": 999,
    "REV_AT_EPOCH": 2215,
    "BSTAR": 0.0012692,
    "MEAN_MOTION_DOT": 0.00037428,
    "MEAN_MOTION_DDOT": 0.0,
    "TLE_LINE1": "1 64678U 25139Q   25315.30050604  .00037428  00000+0  12692-2 0  9990",
    "TLE_LINE2": "2 64678  53.1583 317.2684 0001383  92.1944 267.9215 15.30205093 22153",
    "COMMENT": "Grouped by shell and plane from TLE"
  },
  {
    "OBJECT_NAME": "STARLINK-34489",
    "OBJECT_ID": "25139R",
    "EPOCH": "2025-11-11T07:03:36.745920",
    "MEAN_MOTION": 15.30188435,
    "ECCENTRICITY": 0.0001275,
    "INCLINATION": 53.1586,
    "RA_OF_ASC_NODE": 317.2273,
    "ARG_OF_PERICENTER": 88.6351,
    "MEAN_ANOMALY": 271.4795,
    "EPHEMERIS_TYPE": 0,
    "CLASSIFICATION_TYPE": "U",
    "NORAD_CAT_ID": 64679,
    "ELEMENT_SET_NO": 999,
    "REV_AT_EPOCH": 2215,
    "BSTAR": 0.00091861,
    "MEAN_MOTION_DOT": 0.00026936,
    "MEAN_MOTION_DDOT": 0.0,
    "TLE_LINE1": "1 64679U 25139R   25315.29417530  .00026936  00000+0  91861-3 0  9992",
    "TLE_LINE2": "2 64679  53.1586 317.2273 0001275  88.6351 271.4795 15.30188435 22156",
    "COMMENT": "Grouped by shell and plane from TLE"
  },
  {
    "OBJECT_NAME": "STARLINK-34502",
    "OBJECT_ID": "25139S",
    "EPOCH": "2025-11-11T06:02:49.420032",
    "MEAN_MOTION": 15.30218469,
    "ECCENTRICITY": 0.0001307,
    "INCLINATION": 53.1592,
    "RA_OF_ASC_NODE": 316.9659,
    "ARG_OF_PERICENTER": 97.7674,
    "MEAN_ANOMALY": 262.3475,
    "EPHEMERIS_TYPE": 0,
    "CLASSIFICATION_TYPE": "U",
    "NORAD_CAT_ID": 64680,
    "ELEMENT_SET_NO": 999,
    "REV_AT_EPOCH": 2215,
    "BSTAR": 0.00071068,
    "MEAN_MOTION_DOT": 0.0002076,
    "MEAN_MOTION_DDOT": 0.0,
    "TLE_LINE1": "1 64680U 25139S   25315.25196088  .00020760  00000+0  71068-3 0  9998",
    "TLE_LINE2": "2 64680  53.1592 316.9659 0001307  97.7674 262.3475 15.30218469 22159",
    "COMMENT": "Grouped by shell and plane from TLE"
  },
  {
    "OBJECT_NAME": "STARLINK-34553",
    "OBJECT_ID": "25139T",
    "EPOCH": "2025-11-11T07:27:45.794880",
    "MEAN_MOTION": 15.30203006,
    "ECCENTRICITY": 0.0001594,
    "INCLINATION": 53.1579,
    "RA_OF_ASC_NODE": 316.6225,
    "ARG_OF_PERICENTER": 89.3981,
    "MEAN_ANOMALY": 270.7202,
    "EPHEMERIS_TYPE": 0,
    "CLASSIFICATION_TYPE": "U",
    "NORAD_CAT_ID": 64681,
    "ELEMENT_SET_NO": 999,
    "REV_AT_EPOCH": 2216,
    "BSTAR": 0.00098185,
    "MEAN_MOTION_DOT": 0.00028836,
    "MEAN_MOTION_DDOT": 0.0,
    "TLE_LINE1": "1 64681U 25139T   25315.31094670  .00028836  00000+0  98185-3 0  9991",
    "TLE_LINE2": "2 64681  53.1579 316.6225 0001594  89.3981 270.7202 15.30203006 22160",
    "COMMENT": "Grouped by shell and plane from TLE"
  }
]